NORAD_CAT_ID,OBJECT_NAME,OBJECT_TYPE,EPOCH,MEAN_MOTION,ECCENTRICITY,INCLINATION,RA_OF_ASC_NODE,ARG_OF_PERICENTER,MEAN_ANOMALY,BSTAR,MEAN_MOTION_DOT,MEAN_MOTION_DDOT,TLE_LINE0,TLE_LINE1,TLE_LINE2,SEMIMAJOR_AXIS,PERIOD,APOGEE,PERIGEE,DECAYED
49136.0,STARLINK-3084,PAYLOAD,2021-10-24 06:00:00,15.6978126,0.0003992,70.0015,14.112,282.3644,309.4748,5.6392e-05,6.534e-05,0.0,0 STARLINK-3084,1 49136U 21082G   21297.25001157  .00006534  00000-0  56392-4 0  9995,2 49136  70.0015  14.1120 0003992 282.3644 309.4748 15.69781260  6409,6737.66,91.733,362.215,356.835,0.0
49136.0,STARLINK-3084,PAYLOAD,2021-10-24 14:00:01,15.6977647,0.0003967,70.0014,13.1749,289.2319,25.783,-0.00034706,-0.00041491,0.0,0 STARLINK-3084,1 49136U 21082G   21297.58334491 -.00041491  00000-0 -34706-3 0  9998,2 49136  70.0014  13.1749 0003967 289.2319  25.7830 15.69776470  3685,6737.674,91.733,362.211,356.866,0.0
49136.0,STARLINK-3084,PAYLOAD,2021-10-24 22:00:00,15.69743257,0.0003774,70.0013,12.238,287.3889,110.7703,-6.1306e-05,-7.523e-05,0.0,0 STARLINK-3084,1 49136U 21082G   21297.91667824 -.00007523  00000-0 -61306-4 0  9999,2 49136  70.0013  12.2380 0003774 287.3889 110.7703 15.69743257  6507,6737.769,91.735,362.176,357.091,0.0
49136.0,STARLINK-3084,PAYLOAD,2021-10-25 06:00:02,15.69765204,0.0003728,70.0017,11.3012,284.6577,196.6728,9.1309e-05,0.0001071,0.0,0 STARLINK-3084,1 49136U 21082G   21298.25002315  .00010710  00000-0  91309-4 0  9991,2 49136  70.0017  11.3012 0003728 284.6577 196.6728 15.69765204  3688,6737.706,91.733,362.083,357.059,0.0
49136.0,STARLINK-3084,PAYLOAD,2021-10-25 12:00:00,15.69777417,0.0003798,70.0013,10.5986,289.6037,164.0135,-0.00039031,-0.00046607,0.0,0 STARLINK-3084,1 49136U 21082G   21298.50001157 -.00046607  00000-0 -39031-3 0  9991,2 49136  70.0013  10.5986 0003798 289.6037 164.0135 15.69777417  6591,6737.670999999999,91.733,362.095,356.977,0.0
49136.0,STARLINK-3084,PAYLOAD,2021-10-26 04:00:01,15.6971513,0.000357,70.001,8.7244,284.5602,335.3675,0.00043929,0.00052485,0.0,0 STARLINK-3084,1 49136U 21082G   21299.16668981  .00052485  00000-0  43929-3 0  9998,2 49136  70.0010   8.7244 0003570 284.5602 335.3675 15.69715130  6703,6737.849,91.736,362.119,357.309,0.0
49136.0,STARLINK-3084,PAYLOAD,2021-10-26 14:00:04,15.69729185,0.0003727,70.0011,7.5531,291.7861,162.1668,0.0004095,0.0004892,0.0,0 STARLINK-3084,1 49136U 21082G   21299.58337963  .00048920  00000-0  40950-3 0  9997,2 49136  70.0011   7.5531 0003727 291.7861 162.1668 15.69729185  3677,6737.809,91.736,362.185,357.163,0.0
49136.0,STARLINK-3084,PAYLOAD,2021-10-26 22:00:00,15.69751326,0.0003778,70.0011,6.6162,288.6911,248.1993,-0.00056988,-0.00067709,0.0,0 STARLINK-3084,1 49136U 21082G   21299.91667824 -.00067709  00000-0 -56988-3 0  9992,2 49136  70.0011   6.6162 0003778 288.6911 248.1993 15.69751326  6811,6737.745,91.734,362.156,357.065,0.0
49136.0,STARLINK-3084,PAYLOAD,2021-10-27 04:00:00,15.69706063,0.0003774,70.0014,5.9138,284.7971,224.4192,0.00042051,0.00050201,0.0,0 STARLINK-3084,1 49136U 21082G   21300.16667824  .00050201  00000-0  42051-3 0  9995,2 49136  70.0014   5.9138 0003774 284.7971 224.4192 15.69706063  6858,6737.875,91.737,362.283,357.19699999999995,0.0
49136.0,STARLINK-3084,PAYLOAD,2021-10-27 14:00:01,15.69721486,0.0004006,70.0013,4.7425,290.7515,52.3525,0.00047062,0.00056288,0.0,0 STARLINK-3084,1 49136U 21082G   21300.58334491  .00056288  00000-0  47062-3 0  9990,2 49136  70.0013   4.7425 0004006 290.7515  52.3525 15.69721486  3674,6737.831,91.736,362.395,356.997,0.0
49136.0,STARLINK-3084,PAYLOAD,2021-10-27 22:00:00,15.69745078,0.0003939,70.0011,3.8054,286.665,139.5624,0.00021131,0.00025087,0.0,0 STARLINK-3084,1 49136U 21082G   21300.91667824  .00025087  00000-0  21131-3 0  9998,2 49136  70.0011   3.8054 0003939 286.6650 139.5624 15.69745078  6975,6737.763000000001,91.735,362.282,356.974,0.0
49136.0,STARLINK-3084,PAYLOAD,2021-10-28 14:00:01,15.69704699,0.0003809,70.0012,1.9314,292.656,299.9377,0.00059862,0.00071735,0.0,0 STARLINK-3084,1 49136U 21082G   21301.58335648  .00071735  00000-0  59862-3 0  9991,2 49136  70.0012   1.9314 0003809 292.6560 299.9377 15.69704699  7080,6737.879,91.737,362.31,357.177,0.0
49136.0,STARLINK-3084,PAYLOAD,2021-10-28 22:00:00,15.69735381,0.0003674,70.0013,0.9945,289.021,26.6161,0.00027066,0.00032205,0.0,0 STARLINK-3084,1 49136U 21082G   21301.91667824  .00032205  00000-0  27066-3 0  9992,2 49136  70.0013   0.9945 0003674 289.0210  26.6161 15.69735381  3671,6737.791,91.735,362.132,357.181,0.0
49136.0,STARLINK-3084,PAYLOAD,2021-10-29 06:00:00,15.69749755,0.0003825,70.0003,0.048,291.5457,106.9905,-4.1783e-05,-5.198e-05,0.0,0 STARLINK-3084,1 49136U 21082G   21302.25001157 -.00005198  00000-0 -41783-4 0  9997,2 49136  70.0003   0.0480 0003825 291.5457 106.9905 15.69749755  7182,6737.75,91.734,362.192,357.038,0.0
49136.0,STARLINK-3084,PAYLOAD,2021-10-29 14:00:01,15.69711904,0.0004133,70.0017,359.1207,290.6372,191.2452,0.00053348,0.00063869,0.0,0 STARLINK-3084,1 49136U 21082G   21302.58335648  .00063869  00000-0  53348-3 0  9994,2 49136  70.0017 359.1207 0004133 290.6372 191.2452 15.69711904  7236,6737.858,91.737,362.508,356.939,0.0
49136.0,STARLINK-3084,PAYLOAD,2021-10-29 22:00:01,15.69736283,0.0004046,70.0015,358.1837,287.0592,277.9414,0.00028042,0.00033383,0.0,0 STARLINK-3084,1 49136U 21082G   21302.91668981  .00033383  00000-0  28042-3 0  9991,2 49136  70.0015 358.1837 0004046 287.0592 277.9414 15.69736283  3669,6737.7890000000025,91.735,362.38,356.927,0.0
49136.0,STARLINK-3084,PAYLOAD,2021-10-30 06:00:00,15.69999762,0.0004113,70.0008,357.2427,282.6991,5.3441,-0.0046735,-0.00529945,0.0,0 STARLINK-3084,1 49136U 21082G   21303.25001157 -.00529945  00000-0 -46735-2 0  9999,2 49136  70.0008 357.2427 0004113 282.6991   5.3441 15.69999762  7340,6737.035,91.72,361.671,356.129,0.0
49136.0,STARLINK-3084,PAYLOAD,2021-10-30 14:00:01,15.69719177,0.0003889,70.0012,356.3101,292.8292,78.5069,0.00047865,0.00057252,0.0,0 STARLINK-3084,1 49136U 21082G   21303.58335648  .00057252  00000-0  47865-3 0  9991,2 49136  70.0012 356.3101 0003889 292.8292  78.5069 15.69719177  7393,6737.837,91.736,362.323,357.082,0.0
49136.0,STARLINK-3084,PAYLOAD,2021-10-31 06:00:00,15.69749583,0.0003727,70.0003,354.4263,292.3008,244.9911,-3.0036e-05,-3.797e-05,0.0,0 STARLINK-3084,1 49136U 21082G   21304.25001157 -.00003797  00000-0 -30036-4 0  9991,2 49136  70.0003 354.4263 0003727 292.3008 244.9911 15.69749583  7492,6737.75,91.734,362.127,357.10400000000016,0.0
49136.0,STARLINK-3084,PAYLOAD,2021-10-31 14:00:01,15.69716365,0.0004058,70.0017,353.4992,292.6348,328.0405,0.00043359,0.00051804,0.0,0 STARLINK-3084,1 49136U 21082G   21304.58334491  .00051804  00000-0  43359-3 0  9998,2 49136  70.0017 353.4992 0004058 292.6348 328.0405 15.69716365  7554,6737.846,91.736,362.445,356.976,0.0
49136.0,STARLINK-3084,PAYLOAD,2021-10-31 22:00:01,15.69717429,0.0003904,70.0014,352.5623,287.9088,55.9516,0.00058017,0.00069538,0.0,0 STARLINK-3084,1 49136U 21082G   21304.91668981  .00069538  00000-0  58017-3 0  9999,2 49136  70.0014 352.5623 0003904 287.9088  55.9516 15.69717429  3679,6737.842,91.736,362.338,357.077,0.0
49136.0,STARLINK-3084,PAYLOAD,2021-11-01 14:00:01,15.69715246,0.0004258,70.001,350.6887,291.724,218.3647,0.00062234,0.00074652,0.0,0 STARLINK-3084,1 49136U 21082G   21305.58334491  .00074652  00000-0  62234-3 0  9998,2 49136  70.0010 350.6887 0004258 291.7240 218.3647 15.69715246  7705,6737.849,91.736,362.583,356.845,0.0
49136.0,STARLINK-3084,PAYLOAD,2021-11-01 22:00:00,15.69748204,0.0004057,70.0012,349.7515,288.2467,304.9669,-0.00026172,-0.00031343,0.0,0 STARLINK-3084,1 49136U 21082G   21305.91667824 -.00031343  00000-0 -26172-3 0  9997,2 49136  70.0012 349.7515 0004057 288.2467 304.9669 15.69748204  7765,6737.754,91.734,362.353,356.886,0.0
49136.0,STARLINK-3084,PAYLOAD,2021-11-02 14:00:01,15.69734734,0.000396,70.001,347.8777,293.3473,106.0849,-0.00031195,-0.0003727,0.0,0 STARLINK-3084,1 49136U 21082G   21306.58334491 -.00037270  00000-0 -31195-3 0  9998,2 49136  70.0010 347.8777 0003960 293.3473 106.0849 15.69734734  3690,6737.793000000002,91.735,362.326,356.99,0.0
49136.0,STARLINK-3084,PAYLOAD,2021-11-02 22:00:00,15.69670761,0.0003712,70.0008,346.9409,288.6696,193.8762,0.00071679,0.00085962,0.0,0 STARLINK-3084,1 49136U 21082G   21306.91667824  .00085962  00000-0  71679-3 0  9994,2 49136  70.0008 346.9409 0003712 288.6696 193.8762 15.69670761  3673,6737.976,91.739,362.342,357.34,0.0
49136.0,STARLINK-3084,PAYLOAD,2021-11-03 06:00:00,15.69753628,0.0003741,70.0007,346.0042,289.3976,276.2121,-0.00012233,-0.00014794,0.0,0 STARLINK-3084,1 49136U 21082G   21307.25001157 -.00014794  00000-0 -12233-3 0  9991,2 49136  70.0007 346.0042 0003741 289.3976 276.2121 15.69753628  7973,6737.739000000001,91.734,362.124,357.083,0.0
49136.0,STARLINK-3084,PAYLOAD,2021-11-03 14:00:01,15.697275400000002,0.000389,70.0002,345.0671,294.1982,354.5239,0.00047273,0.00056556,0.0,0 STARLINK-3084,1 49136U 21082G   21307.58334491  .00056556  00000-0  47273-3 0  9999,2 49136  70.0002 345.0671 0003890 294.1982 354.5239 15.69727540  3689,6737.814,91.736,362.3,357.05800000000005,0.0
49136.0,STARLINK-3084,PAYLOAD,2021-11-03 22:00:00,15.69737522,0.0003674,70.0001,344.13,289.3306,82.5194,0.00026201,0.00031168,0.0,0 STARLINK-3084,1 49136U 21082G   21307.91667824  .00031168  00000-0  26201-3 0  9995,2 49136  70.0001 344.1300 0003674 289.3306  82.5194 15.69737522  3682,6737.785,91.735,362.125,357.175,0.0
49136.0,STARLINK-3084,PAYLOAD,2021-11-04 06:00:00,15.69757363,0.0003608,70.0004,343.1929,290.365,164.6165,-0.00045677,-0.00054409,0.0,0 STARLINK-3084,1 49136U 21082G   21308.25001157 -.00054409  00000-0 -45677-3 0  9997,2 49136  70.0004 343.1929 0003608 290.3650 164.6165 15.69757363  8121,6737.728,91.734,362.024,357.162,0.0
